{
  "type": "FeatureCollection",
  "features": [
    {
      "type": "Feature",
      "properties": {
        "norad_id": 47104,
        "name": "FENGYUN 1C DEB",
        "group": "fengyun-1c-debris",
        "lat": 71.53273225042672,
        "lon": -141.52169960127378,
        "alt_km": 831.4114619168367,
        "timestamp": "2025-12-06T22:38:43.018878+00:00",
        "meta_object_name": "FENGYUN 1C DEB",
        "meta_object_id": "1999-025FCC",
        "meta_epoch": "2025-12-05T07:14:15.762912",
        "meta_mean_motion": 14.19416271,
        "meta_eccentricity": 0.00406545,
        "meta_inclination": 98.9092,
        "meta_ra_of_asc_node": 8.8127,
        "meta_arg_of_pericenter": 358.5803,
        "meta_mean_anomaly": 1.5251,
        "meta_ephemeris_type": 0,
        "meta_classification_type": "U",
        "meta_norad_cat_id": 47104,
        "meta_element_set_no": 999,
        "meta_rev_at_epoch": 62267,
        "meta_bstar": 0.00037828604,
        "meta_mean_motion_dot": 7.57e-06,
        "meta_mean_motion_ddot": 0,
        "tle_line1": "1 47104U 99025FCC 25339.30157133  .00000757  00000+0  37829-3 0  9996",
        "tle_line2": "2 47104  98.9092   8.8127 0040654 358.5803   1.5251 14.19416271622675"
      },
      "geometry": {
        "type": "Point",
        "coordinates": [
          -141.52169960127378,
          71.53273225042672
        ]
      }
    }
  ]
}